start=new Date('2023-03-22T00:00:00.000Z').valueOf();
sats=[{"SITE":"AFWTR","INCLINATION":"69.9958","OBJECT_ID":"2023-028AS","COUNTRY_CODE":"US","MEAN_MOTION":"15.69882533","RCS_SIZE":"LARGE","SEMIMAJOR_AXIS":"6737.370","LAUNCH_DATE":"2023-03-03","OBJECT_TYPE":"PAYLOAD","CENTER_NAME":"EARTH","MEAN_MOTION_DDOT":"0.0000000000000","ELEMENT_SET_NO":"999","ECCENTRICITY":"0.00033850","OBJECT_NAME":"STARLINK-5820","TIME_SYSTEM":"UTC","REV_AT_EPOCH":"130","GP_ID":"228623932","TLE_LINE1":"1 55781U 23028AS  23080.91667824  .00081564  00000-0  67468-3 0  9995","MEAN_ELEMENT_THEORY":"SGP4","PERIAPSIS":"356.954","EPOCH":"2023-03-21T22:00:00.999936","RA_OF_ASC_NODE":"104.1359","BSTAR":"0.00067468000000","NORAD_CAT_ID":"55781","ARG_OF_PERICENTER":"269.1518","APOAPSIS":"361.516","DECAY_DATE":null,"MEAN_ANOMALY":"126.7682","CLASSIFICATION_TYPE":"U","TLE_LINE2":"2 55781  69.9958 104.1359 0003385 269.1518 126.7682 15.69882533  1304","FILE":"3866953","MEAN_MOTION_DOT":"0.00081564","REF_FRAME":"TEME","PERIOD":"91.727","EPHEMERIS_TYPE":"0"},{"TLE_LINE2":"2 55782  69.9951 104.1344 0003353 265.5753 131.5383 15.69864066  1301","FILE":"3866953","REF_FRAME":"TEME","MEAN_MOTION_DOT":"0.00117849","PERIOD":"91.728","EPHEMERIS_TYPE":"0","NORAD_CAT_ID":"55782","ARG_OF_PERICENTER":"265.5753","APOAPSIS":"361.547","DECAY_DATE":null,"MEAN_ANOMALY":"131.5383","CLASSIFICATION_TYPE":"U","TLE_LINE1":"1 55782U 23028AT  23080.91667824  .00117849  00000-0  97057-3 0  9999","MEAN_ELEMENT_THEORY":"SGP4","PERIAPSIS":"357.029","EPOCH":"2023-03-21T22:00:00.999936","BSTAR":"0.00097057000000","RA_OF_ASC_NODE":"104.1344","OBJECT_NAME":"STARLINK-5826","TIME_SYSTEM":"UTC","REV_AT_EPOCH":"130","GP_ID":"228623988","MEAN_MOTION_DDOT":"0.0000000000000","ELEMENT_SET_NO":"999","ECCENTRICITY":"0.00033530","OBJECT_TYPE":"PAYLOAD","CENTER_NAME":"EARTH","COUNTRY_CODE":"US","MEAN_MOTION":"15.69864066","RCS_SIZE":"LARGE","SEMIMAJOR_AXIS":"6737.423","LAUNCH_DATE":"2023-03-03","SITE":"AFWTR","OBJECT_ID":"2023-028AT","INCLINATION":"69.9951"},{"GP_ID":"228624025","REV_AT_EPOCH":"130","TIME_SYSTEM":"UTC","OBJECT_NAME":"STARLINK-5825","PERIAPSIS":"357.052","EPOCH":"2023-03-21T22:00:00.999936","BSTAR":"0.00074426000000","RA_OF_ASC_NODE":"104.1339","TLE_LINE1":"1 55783U 23028AU  23080.91667824  .00090071  00000-0  74426-3 0  9992","MEAN_ELEMENT_THEORY":"SGP4","MEAN_ANOMALY":"132.6261","CLASSIFICATION_TYPE":"U","DECAY_DATE":null,"NORAD_CAT_ID":"55783","ARG_OF_PERICENTER":"265.0813","APOAPSIS":"361.444","EPHEMERIS_TYPE":"0","PERIOD":"91.727","FILE":"3866953","TLE_LINE2":"2 55783  69.9958 104.1339 0003259 265.0813 132.6261 15.69877993  1300","REF_FRAME":"TEME","MEAN_MOTION_DOT":"0.00090071","SITE":"AFWTR","OBJECT_ID":"2023-028AU","INCLINATION":"69.9958","MEAN_MOTION":"15.69877993","LAUNCH_DATE":"2023-03-03","SEMIMAJOR_AXIS":"6737.383","RCS_SIZE":"LARGE","COUNTRY_CODE":"US","OBJECT_TYPE":"PAYLOAD","CENTER_NAME":"EARTH","ECCENTRICITY":"0.00032590","MEAN_MOTION_DDOT":"0.0000000000000","ELEMENT_SET_NO":"999"},{"NORAD_CAT_ID":"55784","APOAPSIS":"361.506","ARG_OF_PERICENTER":"265.8096","CLASSIFICATION_TYPE":"U","MEAN_ANOMALY":"134.2809","DECAY_DATE":null,"FILE":"3866953","TLE_LINE2":"2 55784  69.9948 104.1309 0003297 265.8096 134.2809 15.69865161  1300","MEAN_MOTION_DOT":"0.00116313","REF_FRAME":"TEME","PERIOD":"91.728","EPHEMERIS_TYPE":"0","OBJECT_NAME":"STARLINK-5797","TIME_SYSTEM":"UTC","GP_ID":"228623969","REV_AT_EPOCH":"130","TLE_LINE1":"1 55784U 23028AV  23080.91667824  .00116313  00000-0  95808-3 0  9998","MEAN_ELEMENT_THEORY":"SGP4","EPOCH":"2023-03-21T22:00:00.999936","PERIAPSIS":"357.063","BSTAR":"0.00095808000000","RA_OF_ASC_NODE":"104.1309","OBJECT_TYPE":"PAYLOAD","CENTER_NAME":"EARTH","MEAN_MOTION_DDOT":"0.0000000000000","ELEMENT_SET_NO":"999","ECCENTRICITY":"0.00032970","SITE":"AFWTR","INCLINATION":"69.9948","OBJECT_ID":"2023-028AV","COUNTRY_CODE":"US","MEAN_MOTION":"15.69865161","SEMIMAJOR_AXIS":"6737.420","LAUNCH_DATE":"2023-03-03","RCS_SIZE":"LARGE"},{"RA_OF_ASC_NODE":"104.1331","BSTAR":"0.00093478000000","PERIAPSIS":"357.090","EPOCH":"2023-03-21T22:00:00.999936","MEAN_ELEMENT_THEORY":"SGP4","TLE_LINE1":"1 55785U 23028AW  23080.91667824  .00113449  00000-0  93478-3 0  9997","REV_AT_EPOCH":"130","GP_ID":"228624007","TIME_SYSTEM":"UTC","OBJECT_NAME":"STARLINK-5818","PERIOD":"91.728","EPHEMERIS_TYPE":"0","MEAN_MOTION_DOT":"0.00113449","REF_FRAME":"TEME","TLE_LINE2":"2 55785  69.9946 104.1331 0003249 261.9340 136.3684 15.69867195  1303","FILE":"3866953","DECAY_DATE":null,"MEAN_ANOMALY":"136.3684","CLASSIFICATION_TYPE":"U","APOAPSIS":"361.468","ARG_OF_PERICENTER":"261.9340","NORAD_CAT_ID":"55785","RCS_SIZE":"LARGE","SEMIMAJOR_AXIS":"6737.414","LAUNCH_DATE":"2023-03-03","MEAN_MOTION":"15.69867195","COUNTRY_CODE":"US","OBJECT_ID":"2023-028AW","INCLINATION":"69.9946","SITE":"AFWTR","ECCENTRICITY":"0.00032490","ELEMENT_SET_NO":"999","MEAN_MOTION_DDOT":"0.0000000000000","CENTER_NAME":"EARTH","OBJECT_TYPE":"PAYLOAD"},{"DECAY_DATE":null,"MEAN_ANOMALY":"140.3996","CLASSIFICATION_TYPE":"U","NORAD_CAT_ID":"55786","ARG_OF_PERICENTER":"260.2857","APOAPSIS":"361.425","EPHEMERIS_TYPE":"0","PERIOD":"91.728","TLE_LINE2":"2 55786  69.9940 104.1302 0003179 260.2857 140.3996 15.69865880  1303","FILE":"3866953","MEAN_MOTION_DOT":"0.00115219","REF_FRAME":"TEME","REV_AT_EPOCH":"130","GP_ID":"228624063","OBJECT_NAME":"STARLINK-5823","TIME_SYSTEM":"UTC","PERIAPSIS":"357.141","EPOCH":"2023-03-21T22:00:00.999936","BSTAR":"0.00094920000000","RA_OF_ASC_NODE":"104.1302","TLE_LINE1":"1 55786U 23028AX  23080.91667824  .00115219  00000-0  94920-3 0  9998","MEAN_ELEMENT_THEORY":"SGP4","OBJECT_TYPE":"PAYLOAD","CENTER_NAME":"EARTH","ECCENTRICITY":"0.00031790","MEAN_MOTION_DDOT":"0.0000000000000","ELEMENT_SET_NO":"999","SITE":"AFWTR","OBJECT_ID":"2023-028AX","INCLINATION":"69.9940","MEAN_MOTION":"15.69865880","RCS_SIZE":"LARGE","LAUNCH_DATE":"2023-03-03","SEMIMAJOR_AXIS":"6737.418","COUNTRY_CODE":"US"},{"SITE":"AFWTR","OBJECT_ID":"2023-028AY","INCLINATION":"69.9954","MEAN_MOTION":"15.69865386","RCS_SIZE":"LARGE","SEMIMAJOR_AXIS":"6737.419","LAUNCH_DATE":"2023-03-03","COUNTRY_CODE":"US","OBJECT_TYPE":"PAYLOAD","CENTER_NAME":"EARTH","ECCENTRICITY":"0.00032410","MEAN_MOTION_DDOT":"0.0000000000000","ELEMENT_SET_NO":"999","REV_AT_EPOCH":"130","GP_ID":"228623951","TIME_SYSTEM":"UTC","OBJECT_NAME":"STARLINK-5811","PERIAPSIS":"357.101","EPOCH":"2023-03-21T22:00:00.999936","RA_OF_ASC_NODE":"104.1324","BSTAR":"0.00095649000000","TLE_LINE1":"1 55787U 23028AY  23080.91667824  .00116117  00000-0  95649-3 0  9996","MEAN_ELEMENT_THEORY":"SGP4","DECAY_DATE":null,"CLASSIFICATION_TYPE":"U","MEAN_ANOMALY":"133.3681","NORAD_CAT_ID":"55787","APOAPSIS":"361.468","ARG_OF_PERICENTER":"265.5311","PERIOD":"91.728","EPHEMERIS_TYPE":"0","TLE_LINE2":"2 55787  69.9954 104.1324 0003241 265.5311 133.3681 15.69865386  1300","FILE":"3866953","MEAN_MOTION_DOT":"0.00116117","REF_FRAME":"TEME"},{"COUNTRY_CODE":"US","MEAN_MOTION":"15.69819343","LAUNCH_DATE":"2023-03-03","SEMIMAJOR_AXIS":"6737.551","RCS_SIZE":"LARGE","SITE":"AFWTR","INCLINATION":"69.9937","OBJECT_ID":"2023-028AZ","MEAN_MOTION_DDOT":"0.0000000000000","ELEMENT_SET_NO":"999","ECCENTRICITY":"0.00031780","OBJECT_TYPE":"PAYLOAD","CENTER_NAME":"EARTH","TLE_LINE1":"1 55788U 23028AZ  23080.91667824  .00182032  00000-0  14895-2 0  9999","MEAN_ELEMENT_THEORY":"SGP4","PERIAPSIS":"357.275","EPOCH":"2023-03-21T22:00:00.999936","BSTAR":"0.00148950000000","RA_OF_ASC_NODE":"104.1317","OBJECT_NAME":"STARLINK-5804","TIME_SYSTEM":"UTC","GP_ID":"228624045","REV_AT_EPOCH":"130","FILE":"3866953","TLE_LINE2":"2 55788  69.9937 104.1317 0003178 254.4458 145.0762 15.69819343  1304","REF_FRAME":"TEME","MEAN_MOTION_DOT":"0.00182032","EPHEMERIS_TYPE":"0","PERIOD":"91.730","NORAD_CAT_ID":"55788","APOAPSIS":"361.557","ARG_OF_PERICENTER":"254.4458","CLASSIFICATION_TYPE":"U","MEAN_ANOMALY":"145.0762","DECAY_DATE":null},{"OBJECT_NAME":"STARLINK-5815","TIME_SYSTEM":"UTC","GP_ID":"228593255","REV_AT_EPOCH":"351","MEAN_ELEMENT_THEORY":"SGP4","TLE_LINE1":"1 55789U 23028BA  23080.91667824  .00115256  00000-0  94946-3 0  9990","BSTAR":"0.00094946000000","RA_OF_ASC_NODE":"104.1282","EPOCH":"2023-03-21T22:00:00.999936","PERIAPSIS":"356.982","APOAPSIS":"361.583","ARG_OF_PERICENTER":"267.7703","NORAD_CAT_ID":"55789","CLASSIFICATION_TYPE":"U","MEAN_ANOMALY":"134.7012","DECAY_DATE":null,"REF_FRAME":"TEME","MEAN_MOTION_DOT":"0.00115256","FILE":"3866777","TLE_LINE2":"2 55789  69.9951 104.1282 0003415 267.7703 134.7012 15.69865989  3511","EPHEMERIS_TYPE":"0","PERIOD":"91.728","OBJECT_ID":"2023-028BA","INCLINATION":"69.9951","SITE":"AFWTR","COUNTRY_CODE":"US","LAUNCH_DATE":"2023-03-03","SEMIMAJOR_AXIS":"6737.417","RCS_SIZE":"LARGE","MEAN_MOTION":"15.69865989","CENTER_NAME":"EARTH","OBJECT_TYPE":"PAYLOAD","ELEMENT_SET_NO":"999","MEAN_MOTION_DDOT":"0.0000000000000","ECCENTRICITY":"0.00034150"},{"COUNTRY_CODE":"US","RCS_SIZE":"LARGE","SEMIMAJOR_AXIS":"6737.415","LAUNCH_DATE":"2023-03-03","MEAN_MOTION":"15.69866682","OBJECT_ID":"2023-028BB","INCLINATION":"69.9943","SITE":"AFWTR","ELEMENT_SET_NO":"999","MEAN_MOTION_DDOT":"0.0000000000000","ECCENTRICITY":"0.00033080","CENTER_NAME":"EARTH","OBJECT_TYPE":"PAYLOAD","MEAN_ELEMENT_THEORY":"SGP4","TLE_LINE1":"1 55790U 23028BB  23080.91667824  .00114225  00000-0  94109-3 0  9998","BSTAR":"0.00094109000000","RA_OF_ASC_NODE":"104.1288","EPOCH":"2023-03-21T22:00:00.999936","PERIAPSIS":"357.052","OBJECT_NAME":"STARLINK-5813","TIME_SYSTEM":"UTC","REV_AT_EPOCH":"351","GP_ID":"228593267","REF_FRAME":"TEME","MEAN_MOTION_DOT":"0.00114225","TLE_LINE2":"2 55790  69.9943 104.1288 0003308 262.9266 138.9488 15.69866682  3516","FILE":"3866777","PERIOD":"91.728","EPHEMERIS_TYPE":"0","ARG_OF_PERICENTER":"262.9266","APOAPSIS":"361.509","NORAD_CAT_ID":"55790","DECAY_DATE":null,"MEAN_ANOMALY":"138.9488","CLASSIFICATION_TYPE":"U"}];
